[{"OBJECT_NAME":"SHIJIAN-6 05B (SJ-6 05B)","OBJECT_ID":"2021-122B","EPOCH":"2026-03-09T16:33:59.042016","MEAN_MOTION":15.11445981,"ECCENTRICITY":0.0002764,"INCLINATION":97.3727,"RA_OF_ASC_NODE":52.7566,"ARG_OF_PERICENTER":59.7124,"MEAN_ANOMALY":300.438,"EPHEMERIS_TYPE":0,"CLASSIFICATION_TYPE":"U","NORAD_CAT_ID":49962,"ELEMENT_SET_NO":999,"REV_AT_EPOCH":23471,"BSTAR":0.00020679,"MEAN_MOTION_DOT":3.434e-5,"MEAN_MOTION_DDOT":0},{"OBJECT_NAME":"STARLINK-5040","OBJECT_ID":"2022-119AE","EPOCH":"2026-03-09T22:35:42.265824","MEAN_MOTION":15.08840121,"ECCENTRICITY":0.00013015,"INCLINATION":53.2178,"RA_OF_ASC_NODE":312.942,"ARG_OF_PERICENTER":89.8058,"MEAN_ANOMALY":270.3083,"EPHEMERIS_TYPE":0,"CLASSIFICATION_TYPE":"U","NORAD_CAT_ID":53914,"ELEMENT_SET_NO":999,"REV_AT_EPOCH":19186,"BSTAR":-2.2912224e-5,"MEAN_MOTION_DOT":-6.53e-6,"MEAN_MOTION_DDOT":0}]
